{
    "links": {
        "self": "http://www.neowsapp.com/rest/v1/neo/3778657?api_key=iIulBulltgU6a56xZRHN4H3l9WmuAYTsLGpBGhQ2"
    },
    "id": "3778657",
    "neo_reference_id": "3778657",
    "name": "(2017 ON19)",
    "designation": "2017 ON19",
    "nasa_jpl_url": "http://ssd.jpl.nasa.gov/sbdb.cgi?sstr=3778657",
    "absolute_magnitude_h": 24.4,
    "estimated_diameter": {
        "kilometers": {
            "estimated_diameter_min": 0.0350392641,
            "estimated_diameter_max": 0.0783501764
        },
        "meters": {
            "estimated_diameter_min": 35.0392641108,
            "estimated_diameter_max": 78.3501764334
        },
        "miles": {
            "estimated_diameter_min": 0.0217723826,
            "estimated_diameter_max": 0.0486845275
        },
        "feet": {
            "estimated_diameter_min": 114.9582192654,
            "estimated_diameter_max": 257.0543928497
        }
    },
    "is_potentially_hazardous_asteroid": false,
    "close_approach_data": [
        {
            "close_approach_date": "1988-07-24",
            "close_approach_date_full": "1988-Jul-24 12:42",
            "epoch_date_close_approach": 585751320000,
            "relative_velocity": {
                "kilometers_per_second": "14.9151549806",
                "kilometers_per_hour": "53694.5579303216",
                "miles_per_hour": "33363.7101762046"
            },
            "miss_distance": {
                "astronomical": "0.3329523702",
                "lunar": "129.5184720078",
                "kilometers": "49808965.393371474",
                "miles": "30949855.9315513812"
            },
            "orbiting_body": "Earth"
        },
        {
            "close_approach_date": "2005-04-26",
            "close_approach_date_full": "2005-Apr-26 10:51",
            "epoch_date_close_approach": 1114512660000,
            "relative_velocity": {
                "kilometers_per_second": "13.8933704788",
                "kilometers_per_hour": "50016.1337236238",
                "miles_per_hour": "31078.0804239928"
            },
            "miss_distance": {
                "astronomical": "0.3060960242",
                "lunar": "119.0713534138",
                "kilometers": "45791313.235788454",
                "miles": "28453402.6429065052"
            },
            "orbiting_body": "Earth"
        },
        {
            "close_approach_date": "2017-06-22",
            "close_approach_date_full": "2017-Jun-22 03:16",
            "epoch_date_close_approach": 1498101360000,
            "relative_velocity": {
                "kilometers_per_second": "5.7455161518",
                "kilometers_per_hour": "20683.8581466012",
                "miles_per_hour": "12852.1450800368"
            },
            "miss_distance": {
                "astronomical": "0.054565626",
                "lunar": "21.226028514",
                "kilometers": "8162901.42481662",
                "miles": "5072191.744724556"
            },
            "orbiting_body": "Earth"
        },
        {
            "close_approach_date": "2034-04-19",
            "close_approach_date_full": "2034-Apr-19 03:41",
            "epoch_date_close_approach": 2029030860000,
            "relative_velocity": {
                "kilometers_per_second": "18.0760912477",
                "kilometers_per_hour": "65073.9284917142",
                "miles_per_hour": "40434.4085119766"
            },
            "miss_distance": {
                "astronomical": "0.4497055712",
                "lunar": "174.9354671968",
                "kilometers": "67274995.578653344",
                "miles": "41802743.8335863872"
            },
            "orbiting_body": "Earth"
        }
    ],
    "orbital_data": {
        "orbit_id": "3",
        "orbit_determination_date": "2019-08-02 07:00:04",
        "first_observation_date": "2017-04-01",
        "last_observation_date": "2017-08-16",
        "data_arc_in_days": 137,
        "observations_used": 23,
        "orbit_uncertainty": "6",
        "minimum_orbit_intersection": ".0447781",
        "jupiter_tisserand_invariant": "3.960",
        "epoch_osculation": "2459000.5",
        "eccentricity": ".4140551631633091",
        "semi_major_axis": "1.800577170391935",
        "inclination": "1.931419145281678",
        "ascending_node_longitude": "294.017830703525",
        "orbital_period": "882.502686172612",
        "perihelion_distance": "1.055038896317173",
        "perihelion_argument": "322.6358839595036",
        "aphelion_distance": "2.546115444466697",
        "perihelion_time": "2458797.611158632895",
        "mean_anomaly": "82.76460121490391",
        "mean_motion": ".4079307696629336",
        "equinox": "J2000",
        "orbit_class": {
            "orbit_class_type": "AMO",
            "orbit_class_description": "Near-Earth asteroid orbits similar to that of 1221 Amor",
            "orbit_class_range": "1.017 AU < q (perihelion) < 1.3 AU"
        }
    },
    "is_sentry_object": false
}